Stop ID,Stop Abbreviation,Stop Name,Shelter?,Bench?,Route Numbers,Route Name,Latitude,Longitude,ZIP Code
1058,HAR8AWF,HARRISON ST & 8TH AVE N WB,False,False,19,HERMAN,36.168367,-86.788962,37203
5328,EDMBRNSF,EDMONDSON PK & BRENTWOOD PL SB,False,False,72,GRASSMERE-EDMONDSON CONNECTOR,36.048311,-86.743759,37211
139,21APIESN,21ST AVE S & PIERCE AVE SB,False,True,"35,7",HILLSBORO,36.13998,-86.800488,37235
1060,HARBOSWM,HARDING PIKE & BOSLEY SPRINGS RD WB,False,False,"3,5",WEST END - WHITE BRIDGE,36.126788,-86.845188,37205
1939,THOPOWEM,THOMPSON LN & POWELL AVE EB,False,False,77,THOMPSON CONNECTOR,36.112013,-86.764776,37204
156,23ASEINF,23RD AVE N & SEIFRIED ST NB,False,False,22,BORDEAUX,36.182274,-86.814331,37208
2897,STEPERNF,STEWARTS FERRY PKWY & PERCY PRIEST DR NB,False,True,38,ANTIOCH EXPRESS,36.154226,-86.625681,37214
4977,31ABURNN,31ST AVE N & BURCH AVE NB,False,False,21,UNIVERSITY CONNECTOR,36.146209,-86.816324,37203
5033,NWBWCLNF,NW BROAD ST & W CLARK BLVD NB,False,False,96,MURFREESBORO RELAX & RIDE,35.86403,-86.409293,37129
514,BUC15AWN,BUCHANAN ST & 15TH AVE N WB,False,False,22,BORDEAUX,36.180106,-86.808642,37208
2046,WESWILWM,WEST END AVE & WILSON BLVD WB,False,True,"3,5",WEST END - WHITE BRIDGE,36.131505,-86.834269,37205
5204,ROWBONEF,ROWAN DR & BONTEMPS DR EB,False,False,14,WHITES CREEK,36.219552,-86.815121,37207
4543,MCGPARNN,MCGAVOCK PIKE & PARK DR NB,False,False,34,OPRY MILLS,36.171393,-86.67946,37214
1431,MCFMAXNN,MCFERRIN AVE & MAXWELL AVE NB,False,False,30,McFERRIN,36.182846,-86.754596,37206
2243,CHE1AVWF,CHESTNUT & 1ST AVE WB,False,False,25,MIDTOWN,36.14638,-86.763375,37210
4544,MCGLINNF,MCGAVOCK PIKE & LINCOYA DR NB,False,False,34,OPRY MILLS,36.178107,-86.678295,37214
409,BELHHOWN,BELL RD & HICKORY HOLLOW LN WB,False,True,"15,33",MURFREESBORO PIKE,36.049469,-86.65147,37013
972,GALMAPNN,GALLATIN PIKE & MAPLE ST NB,False,False,26,GALLATIN PIKE,36.261113,-86.712488,37115
505,BRO20AWM,BROADWAY AVE & 20TH AVE S WB,False,True,"35,7",HILLSBORO,36.149347,-86.798393,37203
4401,JOJ17AEN,JO JOHNSON AVE & 17TH AVE EB,False,False,25,MIDTOWN,36.161321,-86.799943,37203
4877,SCODOUSF,SCOTT AVE & DOUGLAS AVE SB,False,False,20,SCOTT,36.191031,-86.733406,37206
174,MXIFULTN,FULTON STATION INBOUND,False,False,"15,52,55",MURFREESBORO PIKE,36.153204,-86.769479,37202
1757,OPROPRNF,OPRY MILLS SERVICE COURT 6,False,False,34,OPRY MILLS,36.204342,-86.693747,37216
4976,31ALONSN,31ST AVE N & LONG BLVD SB,False,False,21,UNIVERSITY CONNECTOR,36.146548,-86.816414,37203
3893,PICBLUWF,PICCADILLY ROW & BLUE MOUNTIAN LN W,False,False,38,ANTIOCH EXPRESS,36.083986,-86.656587,37013
925,GALDOZNN,GALLATIN PIKE & DOZIER AVE NB,False,True,26,GALLATIN PIKE,36.201718,-86.739329,37216
1760,OSA25AWN,OSAGE ST & 25TH AVE N WB,False,False,42,ST. CECILIA - CUMBERLAND,36.176372,-86.816158,37208
1046,GREVANEN,GREAT CIRCLE RD & VANTAGE WAY EB,False,False,9,METROCENTER,36.193178,-86.791158,37228
1633,NXOFRGND,FAIRGROUNDS STATION OUTBOUND,False,True,52,NOLENSVILLE PK BRT LITE,36.135034,-86.759818,37210
4988,DICNESNN,DICKERSON PIKE & NESBITT DR NB,False,False,43,HICKORY HILLS,36.276458,-86.751752,37207
5214,MCGGLEEN,MCGAVOCK PIKE & GLENMEADE DR EB,False,False,20,SCOTT,36.203953,-86.726855,37216
4920,TEN50AWN,TENNESSEE AVE & 50TH AVE WB,False,False,19,HERMAN,36.161028,-86.847693,37209
4558,GXOEASTF,EASTLAND STATION OUTBOUND,True,False,"26,56",GALLATIN PIKE,36.183987,-86.748178,37206
1432,MCFSHANN,MCFERRIN AVE & SHARPE AVE NB,False,False,30,McFERRIN,36.188234,-86.754213,37206
4415,MCC4_13,MUSIC CITY CENTRAL 4TH - BAY 13,True,False,"1,18,24,33,43,50,99",100 OAKS,36.16642,-86.781199,37219
1589,NEIMARSF,NEIL AVE & MARINA ST SB,False,False,30,McFERRIN,36.180191,-86.760141,37206
2732,WALWILEF,WALLACE RD & WILLARD DR EB,False,False,52,NOLENSVILLE PK BRT LITE,36.079914,-86.703587,37211
2472,OLDBREEM,OLD HICKORY BLVD & BRENTWOOD CHASE,False,False,37,TUSCULUM - McMURRAY EXPRESS,36.03968,-86.755692,37027
1316,LEBHIGSN,LEBANON PIKE & HIGHLAND VIEW DR SB,False,False,6,LEBANON PIKE,36.207966,-86.611594,37076
151,22APATSN,22ND AVE N & PATTERSON ST SB,True,False,10,CHARLOTTE,36.154016,-86.805493,37203
1093,HARVINWN,HARDING PIKE & VINE CT WB,False,True,"3,5",WEST END - WHITE BRIDGE,36.129788,-86.839515,37205
5231,7AVUNISM,7TH AVE & UNION ST SB,True,False,"1,2,8",100 OAKS,36.163822,-86.783791,37203
4542,MONTVIEW,HWY 70 S & MONTVIEW CONDOS WB,False,False,5,WEST END - BELLEVUE,36.079646,-86.904175,37221
882,EWIDICEN,EWING DR & DICKERSON PIKE EB,False,True,23,DICKERSON ROAD,36.229387,-86.759713,37207
2473,OLDCHAEN,OLD HICKORY BLVD & CHADWICK LN EB,False,False,37,TUSCULUM - McMURRAY EXPRESS,36.040171,-86.752377,37027
1012,GALSEYSN,GALLATIN AVE & SEYMOUR AVE SB,False,True,26,GALLATIN PIKE,36.18571,-86.747616,37206
2108,WOO8SEN,WOODLAND ST & S 8TH ST EB,False,True,20,SCOTT,36.174058,-86.758762,37206
2049,HAMFLIWN,W. HAMILTON AVE & FLICKER DR WB,False,False,14,WHITES CREEK,36.214576,-86.824155,37218
5311,MUR22AEN,MURPHY & 22ND AVE EB,False,False,25,MIDTOWN,36.154685,-86.806089,37203
1296,LEBDONEM,LEBANON PIKE & DONELSON PIKE EB,False,False,6,LEBANON PIKE,36.166944,-86.661052,37214
2649,6AVDEANN,6TH AVE N & DEADERICK ST NB,True,False,"33,35,37",HICKORY HOLLOW-LENOX EXPRESS,36.164724,-86.782714,37243
1729,OLDLAKNF,OLD HICKORY BLVD & LAKESHORE DR NB,False,False,27,OLD HICKORY,36.239099,-86.630265,37138
5082,MXOFULTN,FULTON STATION OUTBOUND,True,False,"15,18,27,33,38,52,55",MURFREESBORO PIKE,36.153405,-86.772328,37211
1549,MURRURNF,MURFREESBORO PIKE & RURAL HILL RD N,False,False,15,MURFREESBORO PIKE,36.075134,-86.639012,37217
888,FLASLANN,FLAMINGO DR & SLAYDEN DR NB,False,False,30,McFERRIN,,,
3286,MONCRONN,MONTGOMERY AVE & CROCKETT ST NB,False,False,30,McFERRIN,36.195713,-86.755567,37207
2723,2AVCHUNN,2ND AVE N & CHURCH ST NB,False,False,"15,25,27,33,34,36,37,38,44,52,55,84,86,96",LEBANON PIKE,36.164545,-86.776836,37201
5051,28APARNN,28TH AVE & PARK PLZ NB,True,False,21,UNIVERSITY CONNECTOR,36.149914,-86.817829,37236
4916,HER16AWN,HERMAN ST & 16TH AVE N WB,False,False,19,HERMAN,36.165526,-86.800157,37208
3173,SPR1SWN,SPRING ST & N 1ST ST WB,False,True,28,MERIDIAN,36.17701,-86.774366,37201
1502,MURREEWF,MURFREESBORO PIKE & REEDWOOD DR,False,True,15,MURFREESBORO PIKE,36.104936,-86.669667,37214
3777,APAPACNN,APACHE TRL & PACKARD DR NB,False,False,37,TUSCULUM - McMURRAY EXPRESS,36.065058,-86.685745,37013
487,BRO9AWF,BROADWAY AVE & 9TH AVE S WB,False,True,"3,35,7,93",WEST END - WHITE BRIDGE,36.158366,-86.783544,37203
553,CXI2831,28TH/31ST AVE CONNECTOR STATION INBOUND,True,False,"10,50",CHARLOTTE,36.15387,-86.818414,37209
3240,SCOMCGNN,SCOTT AVE & MCGAVOCK PIKE NB,False,False,20,SCOTT,36.20442,-86.73213,37216
1820,ROSCREWN,ROSEBANK AVE & CRESENT HILL RD WB,False,False,4,SHELBY,36.186861,-86.724183,37206
5162,21AHERSN,21ST AVE & HERMOSA ST SB,False,False,19,HERMAN,36.163721,-86.80848,37208
387,BELCANWF,BELL RD & CANE RIDGE DR WB,False,False,33,HICKORY HOLLOW-LENOX EXPRESS,36.044893,-86.662405,37013
1539,MURPINWF,MURFREESBORO PIKE & PINEWAY DR WB,False,False,15,MURFREESBORO PIKE,36.11544,-86.694755,37217
592,CXOAMERI,AMERICAN STATION OUTBOUND,False,False,"10,50",CHARLOTTE,36.145052,-86.872141,37209
1339,LEBSTOWM,LEBANON PIKE & STONES RIVER RD WB,False,True,6,LEBANON PIKE,36.185434,-86.636695,37138
2029,WESELMWF,WEST END AVE & ELMINGTON AVE WB,False,False,"3,5",WEST END - WHITE BRIDGE,36.135304,-86.823686,37205
5124,ROSCREEF,ROSEBANK AVE & CRESCENT HILL RD EB,False,False,4,SHELBY,36.186773,-86.724321,37206
2648,UNI7AEN,UNION ST & 7TH AVE N EB,False,False,35,RIVERGATE EXPRESS,36.163277,-86.783903,37219
2094,WOO11SWN,WOODLAND ST & S 11TH ST WB,False,False,20,SCOTT,36.177293,-86.750254,37206
2784,ELIHYDSN,ELIZABETH RD & HYDES FERRY RD SB,False,False,22,BORDEAUX,36.193328,-86.840202,37218
106,1AVDEMNN,1ST AVE S & DEMONBREUN ST NB,False,False,"25,27,36,44",LEBANON PIKE,36.160067,-86.772871,37201
5225,CHIJONWN,CHICKASAW AVE & JONES AVE WB,False,False,30,McFERRIN,36.201098,-86.758248,37207
61,12AWESNN,12TH AVE S & WEST GROVE AVE NB,False,False,17,12TH AVENUE SOUTH,36.134748,-86.788904,37203
4482,EDMBLAWF,EDMONDSON PK & BLACKMAN RD WB,False,False,72,GRASSMERE-EDMONDSON CONNECTOR,36.072026,-86.733038,37211
4756,GRYDWTNF,GRAYCROFT AVE & DUE WEST AVE NB,False,False,36,MADISON EXPRESS,,,
123,BRODIVSM,BROADWAY AVE & DIVISION ST SB,False,True,"25,35,7",HILLSBORO,36.148549,-86.799131,37203
2486,BARDAREN,BART DR & DARLENE DR EB,False,False,37,TUSCULUM - McMURRAY EXPRESS,36.057323,-86.694515,37013
5264,MXIMCCTR,CONVENTION CENTER STATION INBOUND,False,False,"15,33,34,37,38,52,55,84,86,96",NOLENSVILLE PK BRT LITE,36.160899,-86.77444,37201
2719,LAF2ANNN,LAFAYETTE ST & 2ND AVE S SB,False,False,15,MURFREESBORO PIKE,,,
5394,THOBRAWM,THOMPSON LN & BRANSFORD DR WB,False,False,77,THOMPSON CONNECTOR,36.112227,-86.764816,37204
1272,LAFLEWWN,LAFAYETTE ST & LEWIS ST WB,False,False,"15,18",MURFREESBORO PIKE,36.147536,-86.758344,37210
4729,DUPARCEN,N DUPONT AVE & ARCHWOOD DR EB,False,False,76,MADISON CONNECTOR,36.266161,-86.686945,37115
1185,HWYHICWN,HWY 70 S & HICKS RD WB,False,True,"24,5",WEST END - BELLEVUE,36.073996,-86.925957,37221
4330,KINCLAW,KINGS LN & CLARKSVILLE PK WB,False,False,22,BORDEAUX,36.218661,-86.83646,37218
4902,SR4DELEN,SR 45 & DELAWARE AVE EB,False,False,36,MADISON EXPRESS,36.263674,-86.705155,37115
976,GALMAXSN,GALLATIN AVE & MAXWELL AVE SB,False,True,26,GALLATIN PIKE,36.182477,-86.749109,37206
2757,NHYMANEN,N HYDES FERRY RD & MANCHESTER AVE EB,False,False,22,BORDEAUX,36.193892,-86.83568,37218
1063,HARDANWN,HARDING PL & DANBY DR WB,False,False,72,GRASSMERE-EDMONDSON CONNECTOR,36.07863,-86.745025,37211
1397,MAIFINEM,MAIN ST & MCFERRIN AVE EB,False,False,26,GALLATIN PIKE,36.177108,-86.754117,37206
4565,GXOEHILN,EAST HILL STATION OUTBOUND,True,False,"26,56",GALLATIN PIKE,36.203226,-86.738674,37216
2056,WHICORSF,WHITE BRIDGE PIKE & CORBETT LN SB,False,False,3,WEST END - WHITE BRIDGE,36.143101,-86.8578,37209
3924,PICBISWM,PICCADILLY ROW & BISHOPGATE RD WB,False,False,38,ANTIOCH EXPRESS,36.078591,-86.659934,37013
3938,BELHARNN,BELL RD & HARBOR LIGHTS DR NB,False,False,38,ANTIOCH EXPRESS,36.093746,-86.624787,37217
56,12ASUMSF,12TH AVE S & SUMMIT AVE SB,False,False,17,12TH AVENUE SOUTH,36.138427,-86.787895,37203
1859,SCOSTRSN,SCOTT AVE & STRAIGHTWAY AVE SB,False,False,20,SCOTT,36.192634,-86.733226,37206
4310,SHA14SWN,SHARPE AVE & N 14TH S WB,False,False,20,SCOTT,36.18837,-86.742644,37206
790,DICRICSN,DICKERSON PIKE & RICHARDSON AVE SB,False,False,"23,43",DICKERSON ROAD,36.19201,-86.772771,37207
2697,NXOMORTN,MORTON STATION OUTBOUND,False,False,52,NOLENSVILLE PK BRT LITE,36.106507,-86.743024,37211
769,DICGRASN,N DICKERSON PIKE & GRACE ST SB,False,True,"14,23,43",WHITES CREEK,36.183867,-86.773861,37207
2654,THOCATEN,THOMPSON PL & CATINA DR EB,False,False,77,THOMPSON CONNECTOR,36.127213,-86.704016,37217
3119,32ABATNN,32ND AVE N & BATAVIA ST NB,False,False,19,HERMAN,36.160458,-86.824014,37209
3065,HER12AWN,HERMAN ST & 12TH AVE N WB,False,False,19,HERMAN,36.167232,-86.796321,37208
622,CHAWESWN,CHARLOTTE PIKE & WESTBORO DR WB,False,False,10,CHARLOTTE,36.146209,-86.870704,37209
4639,HAMFORWN,HAMILTON AVE & FORTNEGLY BLVD WB,False,False,1,100 OAKS,36.139204,-86.774932,37203
4985,DBTBUCNN,DR DB TODD BLVD & BUCHANAN ST NB,False,False,21,UNIVERSITY CONNECTOR,36.180007,-86.810953,37208
297,8AVERSN,8TH AVE S & VERNON SB,False,False,8,8TH AVENUE SOUTH,36.140829,-86.778706,37203
5283,18ASTASN,18TH AVE & STATE ST SB,False,False,10,CHARLOTTE,36.156061,-86.798348,37203
1897,SHEDUGWF,SHERIDAN RD & DUGGER DR WB,False,False,4,SHELBY,36.192561,-86.712467,37206
173,2ASTOSM,2ND AVE N & STOCKYARD ST SB,True,False,"28,9",METROCENTER,36.171769,-86.781367,37201
2298,NASBELWF,NASHBORO BLVD & BELL RD WB,False,False,38,ANTIOCH EXPRESS,36.089707,-86.629424,37013
2321,RICDEBEN,RICHARDS RD & DEBRA DR EB,False,False,38,ANTIOCH EXPRESS,36.067477,-86.665184,37013
3978,BRIFERSN,BRICK CHURCH PIKE & FERN AVE SB,False,False,41,GOLDEN VALLEY,36.19585,-86.776754,37207
774,DICLIGSF,DICKERSON PIKE & LIGON AVE SB,False,True,"23,43",DICKERSON ROAD,36.194193,-86.772489,37203
5156,DICALHNN,DICKERSON PIKE & ALHAMBRA CIR NB,False,False,"23,43",DICKERSON ROAD,36.219376,-86.762294,37207
205,40APRESF,40TH AVE N & PRESTON TAYLOR PL SB,False,False,19,HERMAN,36.159882,-86.835354,37209
3941,BELPSTNN,BELL RD & PRIEST WOODS DR NB,False,False,38,ANTIOCH EXPRESS,36.127327,-86.629488,37217
5098,H70FOREM,HWY 70 & FOREST PARK APARTMENTS EB,False,False,5,WEST END - BELLEVUE,36.077468,-86.91188,37221
858,ELMROYWN,ELM HILL PIKE & ROYAL PKWY WB,False,False,18,AIRPORT - DOWNTOWN HOTELS,36.151738,-86.676829,37214
4166,GALMKESN,GALLATIN PIKE & MCKENNIE AVE SB,False,True,26,GALLATIN PIKE,36.191768,-86.744957,37206
1281,LEBANDWF,LEBANON PIKE & ANDREW JACKSON PKWY,False,True,6,LEBANON PIKE,36.215271,-86.598612,37076
3882,BELPRISF,BELL RD & PRIEST WOODS DR SB,False,False,38,ANTIOCH EXPRESS,36.127254,-86.629671,37217
737,DICBELNN,DICKERSON PIKE & BELLSHIRE PIKE NB,False,False,43,HICKORY HILLS,36.259117,-86.757745,37207
265,8ABROSN,8TH AVE S & BROADWAY AVE SB,True,False,"1,2,3,5,7,8,84,86,96",100 OAKS,36.159008,-86.782225,37203
4635,BRALIGSF,BRANSFORD AVE & LIGON DR SB,False,False,1,100 OAKS,36.121755,-86.765561,37204
1659,NOLTUSSN,NOLENSVILLE PIKE & TUSCULUM RD SB,False,False,52,NOLENSVILLE PK BRT LITE,36.059105,-86.716445,37211
5275,11APORSF,11TH AVE & PORTER ST SB,False,False,17,12TH AVENUE SOUTH,36.157903,-86.786781,37203
1150,HILHAMSN,HILLSBORO PIKE & HAMPTON AVE SB,False,False,7,HILLSBORO,36.116092,-86.810628,37215
5458,CM5_2,Temporary Bay 2,False,False,,LEBANON PIKE,,,
1076,HARLYNWF,HARDING PIKE & LYNNWOOD BLVD WB,False,False,5,WEST END - BELLEVUE,36.121236,-86.852861,37205
4578,GXORIVEN,RIVERGATE STATION OUTBOUND,True,False,"26,56",GALLATIN PIKE,36.300827,-86.694508,37215
325,ANNCHAEN,ANNEX AVE & CHARLOTTE PIKE EB,False,False,10,CHARLOTTE,36.139638,-86.881283,37209
299,8AARGSM,8TH AVE S & ARGYLE AV SB,False,False,8,8TH AVENUE SOUTH,36.13524,-86.779147,37204
394,BELCLISF,BELMONT BLVD & CLIFTON LN SB,False,False,"2,21",BELMONT,36.114409,-86.799921,37215
1128,HERMIDSN,HERMITAGE AVE & MIDDLETON ST SB,False,True,"25,27,34,36,44",LEBANON PIKE,36.155912,-86.767211,37210
1462,MERTRUNN,MERIDIAN ST & TRUETLAN ST NB,False,False,28,MERIDIAN,36.179972,-86.769035,37207
5174,23RBUCSN,23RD AVE & BUCHANAN ST SB,False,False,22,BORDEAUX,36.180613,-86.814645,37208
150,21AWOOSN,21ST AVE S & WOODLAWN DR SB,False,True,7,HILLSBORO,36.125424,-86.805563,37212
2485,COLCOLNN,COLEMONT DR & COLERIDGE DR NB,False,False,37,TUSCULUM - McMURRAY EXPRESS,36.059183,-86.698399,37213
2468,OLDOAKEN,OLD HICKORY BLVD & OAKES DR EB,False,False,37,TUSCULUM - McMURRAY EXPRESS,36.040755,-86.773622,37027
916,GALCAHSN,GALLATIN PIKE & CAHAL AVE SB,False,False,26,GALLATIN PIKE,36.196227,-86.742545,37206
1907,EASWILWF,EASTLAND AVE & WILSONWOOOD PL WB,False,False,4,SHELBY,36.181989,-86.728162,37206
1949,TODSAWWN,TODD PREIS DR & SAWYER BROWN RD WB,False,False,"24,5",WEST END - BELLEVUE,36.071116,-86.946832,37221
5323,EDMBLANF,EDMONDSON PK & BLACKMAN NB,False,False,72,GRASSMERE-EDMONDSON CONNECTOR,36.072479,-86.732616,37211
1110,HER22AWN,HERMAN ST & 22ND AVE N WB,False,False,19,HERMAN,36.162409,-86.810284,37208
735,DELGARSF,DELTA AVE & GARFIELD ST SB,False,False,22,BORDEAUX,36.179338,-86.798082,37208
4944,BURWALWN,BURTON ST & WALNUT ST WB,False,False,96,MURFREESBORO RELAX & RIDE,35.849366,-86.392944,37130
4443,MURSUNEF,MURFREESBORO PIKE & SUNSET ST EB,False,False,"86,96",SMYRNA - LA VERGNE EXPRESS,36.017932,-86.568408,37086
5352,THOSTEEF,THOMPSON LN & ST EDWARDS DR EB,False,False,77,THOMPSON CONNECTOR,36.110185,-86.738175,37211
1069,HARTANWF,HARDING PL & TANGLEWOOD CT WB,False,False,52,NOLENSVILLE PK BRT LITE,36.081633,-86.714151,37211
3636,ANDPRINN,ANDERSON RD & PRIEST LAKE DR NB,False,False,38,ANTIOCH EXPRESS,36.090586,-86.606347,37217
85,MAGWEDNM,MAGNOLIA BLVD & WEDGEWOOD AVE NB,False,True,"2,21",BELMONT,36.135908,-86.796114,37212
1343,LEBBRIWN,LEBANON PIKE & BRILEY PKWY WB,False,False,"34,6",LEBANON PIKE,36.168806,-86.685747,37214
5362,MASKIPNM,MASSMAN DR & KIPLING DR NB,False,False,77,THOMPSON CONNECTOR,36.13214,-86.700675,37217
1232,JEFI40EN,JEFFERSON ST & I-40 EB,False,False,"21,60",UNIVERSITY CONNECTOR,36.167885,-86.817622,37208
5137,RIVKIRSN,RIVERSIDE DR & KIRKLAND AVE SB,False,False,4,SHELBY,36.207496,-86.723093,37216
944,GALMCANN,GALLATIN PIKE & GREENLAND AVE NB,False,False,26,GALLATIN PIKE,36.222459,-86.725813,37216
484,BRO11AEN,BROADWAY AVE & 11TH AVE N EB,False,False,"35,7",HILLSBORO,36.157036,-86.786292,37240
2313,RICFANWN,RICHARDS RD & FANNING DR WB,False,False,38,ANTIOCH EXPRESS,36.068354,-86.671704,37013
5091,LEBOMOWF,LEBANON PIKE & OMOHUNDRO DR WB,False,False,"34,6",LEBANON PIKE,36.157039,-86.709045,37210
4822,31AWESSF,31ST AVE & WEST END AVE SB,True,False,21,UNIVERSITY CONNECTOR,36.141776,-86.815005,37212
759,DICDUESF,DICKERSON PIKE & DUE WEST AVE SB,False,False,43,HICKORY HILLS,36.256061,-86.758001,37207
4760,OLDGIBEF,OLD HICKORY BLVD & GIBSON DR EB,False,False,36,MADISON EXPRESS,36.263554,-86.717419,37115
89,17AEDGSM,17TH AVE S & EDGEHILL AVE SB,False,False,2,BELMONT,36.142257,-86.794758,37212
125,21AEDGSN,21ST AVE S & EDGEHILL AVE SB,False,True,"35,7,93",HILLSBORO,36.144284,-86.799849,37235
94,17ADORSN,17TH AVE S & DOROTHY PL SB,False,False,2,BELMONT,36.137623,-86.795609,37212
499,BRO1AEN,BROADWAY AVE & 1ST AVE N EB,False,True,"25,36",LEBANON PIKE,36.162205,-86.774492,37203
5293,MURJACWF,MURFREESBORO PIKE & JACKSON SQ BLVD,False,False,"86,96",SMYRNA - LA VERGNE EXPRESS,36.020262,-86.576425,37086
5173,CLAFAISF,CLARKSVILLE PIKE & FAIRVIEW DR SB,False,False,22,BORDEAUX,36.209909,-86.839283,37080
5016,MURMORSN,MURFREESBORO PIKE & MORRIS GENTRY B,False,False,96,MURFREESBORO RELAX & RIDE,36.06743,-86.631419,37013
1189,HWYOLDWF,HWY 70 S & OLD HARDING PIKE WB,False,True,"24,5",WEST END - BELLEVUE,36.074206,-86.922137,37221
311,MASAPPWN,MASSMAN DR & APPLETON DR EB,False,False,18,AIRPORT - DOWNTOWN HOTELS,36.152706,-86.704406,37217
2514,OPRYSHOP,OPRY MILLS SHOPPING CENTER,False,False,34,OPRY MILLS,36.20849,-86.698377,37216
3884,BELCOUSF,BELL RD & COUCHVILLE PIKE SB,False,False,38,ANTIOCH EXPRESS,36.111862,-86.630231,37217
1356,LEBSPEWN,LEBANON PIKE & SPENCE LN WB,False,True,"34,6",LEBANON PIKE,36.153846,-86.721279,37210
385,BELBROWN,BELL RD & BROOK VIEW ESTATES DR WB,False,False,33,HICKORY HOLLOW-LENOX EXPRESS,36.043845,-86.693013,37211
1455,MERCLENN,MERIDIAN ST & CLEVELAND ST NB,False,False,28,MERIDIAN,36.186902,-86.768026,37207
3735,AMIAMASN,AMALIE DR & AMALIE POINT SB,False,False,37,TUSCULUM - McMURRAY EXPRESS,36.048395,-86.724604,37211
3724,EDMHUNNN,EDMONDSON PIKE & HUNTINGTON PKWY NB,False,False,"37,72",TUSCULUM - McMURRAY EXPRESS,36.052039,-86.743057,37211
3718,OLDHEAEN,OLD HICKORY BLVD & HEARTHSTONE LN E,False,False,37,TUSCULUM - McMURRAY EXPRESS,36.039664,-86.762927,37220
3038,16SHOLSN,S 16TH ST & HOLLY ST SB,False,False,4,SHELBY,36.175539,-86.742213,37206
1763,CREOAKSN,CREEKWOOD DR & OAKVIEW DR SB,False,True,23,DICKERSON ROAD,36.23493,-86.766578,37207
1832,ROYPEREM,ROYAL PKWY & PERIMETER PL EB,False,False,18,AIRPORT - DOWNTOWN HOTELS,36.148364,-86.674225,37214
617,CHAWHIWN,CHARLOTTE PIKE & WHITE BRIDGE PIKE,False,False,10,CHARLOTTE,36.150468,-86.856981,37209
4872,IND@OHTO,OLD HICKORY TOWERS,False,False,27,OLD HICKORY,36.26426,-86.659473,37138
2481,OCATUSEN,OCALA DR & TUSCULUM CT EB,False,False,37,TUSCULUM - McMURRAY EXPRESS,36.050887,-86.698364,37211
4126,OAKBULNN,OAKWOOD AVE & BULLOCK AVE NB,False,False,30,McFERRIN,36.215088,-86.753136,37207
3190,WHITONWN,WHITES CREEK PIKE & TONEY RD WB,False,False,14,WHITES CREEK,36.208556,-86.793926,37207
99,18AKELNM,18TH AVE N & KELLOW ST NB,False,False,42,ST. CECILIA - CUMBERLAND,36.189829,-86.812158,37208
236,5SRUSSN,S 5TH ST & RUSSELL ST SB,False,False,4,SHELBY,36.170853,-86.764262,37206
5247,DICLORNM,DICKERSON PIKE & LORRANE AVE NB,False,False,23,DICKERSON ROAD,36.218751,-86.762496,37207
3942,BELHBRNN,BELL RD & HARBORWOOD DR NB,False,False,38,ANTIOCH EXPRESS,36.132666,-86.629191,37214
1893,SHE8SEN,SHELBY AVE & S 8TH ST EB,False,False,4,SHELBY,36.169855,-86.756272,37206
293,8APRENN,8TH AVE S & PRENTICE AVE NB,False,False,8,8TH AVENUE SOUTH,36.130444,-86.778409,37204
4917,DELGARNN,DELTA AVE & GARFIELD ST NB,False,False,22,BORDEAUX,36.179804,-86.798477,37208
4141,8AVUNINN,8TH AVE N & UNION ST NB,False,False,"1,18,2,3,5,7",100 OAKS,36.162858,-86.784621,37203
1359,LEBSPEEM,LEBANON PIKE & SPENCE LN EB,False,False,"34,6",LEBANON PIKE,36.153217,-86.72465,37210
2040,WES440WN,WEST END AVE & I-440 RAMP WB,False,True,"3,5",WEST END - WHITE BRIDGE,36.138788,-86.819808,37203
1207,JEF10AEN,JEFFERSON ST & 10TH AVE N EB,False,True,60,MUSIC CITY BLUE CIRCUIT,36.172277,-86.795009,37208
1605,NOLELYNN,ELYSIAN FIELDS STATION INBOUND,False,True,52,NOLENSVILLE PK BRT LITE,36.086113,-86.729211,37211
4936,CONMISNN,CONFERENCE DR & MISSION RIDGE DR NB,False,False,35,RIVERGATE EXPRESS,36.311248,-86.697114,37072
673,CLA25AEN,CLARKSVILLE PIKE & 25TH AVE N EB,True,True,22,BORDEAUX,36.185639,-86.817557,37208
866,ELMAIRWM,ELM HILL PIKE & AIR LANE DR WB,False,False,18,AIRPORT - DOWNTOWN HOTELS,36.146839,-86.704906,37210
4354,ZCHAFAIN,CHARLES DAVID BLVD & FAIN ST NB,False,False,25,MIDTOWN,36.151873,-86.761954,37210
1445,MCGRIVWF,MCGAVOCK PIKE & RIVERSIDE DR WB,False,False,"20,4",SHELBY,36.204631,-86.724902,37216
2191,MADTOWE,MADISON TOWERS,False,False,76,MADISON CONNECTOR,36.267491,-86.699097,37115
288,8ADEMSN,8TH AVE S & DEMONBREUN ST SB,False,False,"1,2,8,84,86,96",100 OAKS,36.156975,-86.780929,37204
3898,PICBISEN,PICCADILLY ROW & BISHOPGATE RD EB,False,False,38,ANTIOCH EXPRESS,36.078506,-86.660368,37013
1454,MERBERNN,MERIDIAN ST & BERRY ST NB,False,False,28,MERIDIAN,36.181099,-86.768835,37207
5087,6AVDEMNN,6TH AVE & CONVENTION CTR NB,False,False,,AIRPORT - DOWNTOWN HOTELS,,,
5327,EDMBRINN,EDMONDSON PK & BRIGHTON VILLAGE DR,False,False,"37,72",TUSCULUM - McMURRAY EXPRESS,36.045072,-86.743862,37211
3181,BAPGOOSN,BAPTIST WORLD CENTER DR & GOOCH ST SB,False,False,14,WHITES CREEK,36.206038,-86.790873,37207
2771,8AHARNN,8TH AVE N & HARRISON ST NB,False,False,"22,42",BORDEAUX,36.168536,-86.788255,37219
119,21ABERNM,21ST AVE S & BERNARD AVE NB,False,False,7,HILLSBORO,36.131413,-86.801376,37212
1235,JEFTEMWN,JEFFERSON ST & ED TEMPLE BLVD WB,False,True,"21,60",UNIVERSITY CONNECTOR,36.167813,-86.820382,37208
3141,LEANOEN,LEALAND LN & NOELTON AVE EB,False,False,17,12TH AVENUE SOUTH,36.111871,-86.787165,37204
1795,PRECARSN,PRESTON DR & CARTER AVE SB,False,False,4,SHELBY,36.188479,-86.717963,37206
115,21AACKSF,21ST AVE S & ACKLEN AVE SB,False,False,7,HILLSBORO,36.135345,-86.801115,37212
348,BAPUNNSM,BAPTIST WORLD CENTER DR & UNNAMED ST SB,False,False,14,WHITES CREEK,36.195314,-86.780671,37207
4821,EDG12AEN,EDGEHILL AVE & 12TH AVE S EB,False,False,"2,25",BELMONT,36.142785,-86.787917,37212
3635,MORILLSN,MORROW RD & ILLINOIS AVE SB,False,False,19,HERMAN,36.157518,-86.853558,37209
1023,GALTHOSN,GALLATIN PIKE & THOMAS AVE SB,False,True,26,GALLATIN PIKE,36.205205,-86.737594,37216
583,CHA54AWN,CHARLOTTE AVE & 54TH AVE N WB,False,False,10,CHARLOTTE,36.151275,-86.853576,37209
1148,HILGRASN,HILLSBORO PIKE & GRAYBAR LN SB,False,True,7,HILLSBORO,36.111281,-86.811431,37027
663,CHU21AWN,CHURCH ST & 21ST AVE N WB,False,True,10,CHARLOTTE,36.152641,-86.802521,37236
5088,MXOPLUSP,PLUS PARK STATION OUTBOUND,True,False,"15,55",MURFREESBORO PIKE,36.13434,-86.723268,37013
5216,SHA16TEN,SHARPE AVE & 16TH ST N EB,False,False,20,SCOTT,36.187958,-86.740007,37206
3080,ALA39ANN,ALAMEDA ST & 39TH AVE N,False,False,19,HERMAN,36.163543,-86.833819,37209
4661,4AVUNISN,4TH AVE & UNION ST SB,False,False,"15,18,25,27,33,34,36,37,44,60,61",LEBANON PIKE,36.16517,-86.779943,37219
4652,DEM3AEN,DEMONBREUN ST & 3RD AVE EB,False,False,93,MUSIC CITY STAR WEST END SHUTTLE,36.159518,-86.774728,37201
181,MAD2AVEN,MADISON ST & 2ND AVE N EB,False,False,"28,41,9",METROCENTER,36.176688,-86.784712,37208
378,BELBLUWM,BELL RD & BLUE HOLE RD WB,False,False,33,HICKORY HOLLOW-LENOX EXPRESS,36.046456,-86.676915,37013
3040,16SFATSN,16TH ST & FATHERLAND ST SB,False,False,4,SHELBY,36.173467,-86.742506,37206
1570,MUSMCGNF,MUSIC VALLEY DR & MCGAVOC PIKE NB,False,True,34,OPRY MILLS,36.217547,-86.69614,37214
1044,GREATHEF,GREAT CIRCLE RD & ATHENS WAY EB,False,False,9,METROCENTER,36.198278,-86.795193,37228
402,BELGVINN,BELMONT BLVD & GRAND VIEW LN NB,False,False,"2,21",BELMONT,36.108796,-86.800523,37215
4997,OLDCOBEN,OLD HICKORY BLVD & COBBLESTONE CREEK DR EB,False,False,43,HICKORY HILLS,36.278199,-86.789015,37207
1972,VAIQUAEN,VAILVIEW DR & QUALYNN DR EB,False,False,23,DICKERSON ROAD,36.237217,-86.770335,37207
2102,WOO5SEN,WOODLAND ST & S 5TH ST EB,False,True,"20,4",SHELBY,36.171678,-86.764955,37206
4851,TROGRASM,TROUSDALE DR & GRASMERE PARK SB,False,False,72,GRASSMERE-EDMONDSON CONNECTOR,36.088347,-86.751842,37204
5410,5AVJRGSN,5TH AVE N & JR GILLIAM WAY SB,False,False,60,MUSIC CITY BLUE CIRCUIT,36.172987,-86.786627,37208
5063,MXOFOSTE,FOSTER STATION OUTBOUND,True,False,"15,55",MURFREESBORO PIKE,36.140994,-86.739126,37210
1522,MURMCPEN,MURFREESBORO PIKE & MCGAVOCK PIKE E,False,True,15,MURFREESBORO PIKE,36.11292,-86.689366,37217
1844,SCOCAHNF,SCOTT AVE & CAHAL AVE NB,False,False,20,SCOTT,36.19575,-86.732618,37206
2223,ZCLSFCLK,_ CLIFF DR PAST CLARKSVILLE HWY,False,False,22,BORDEAUX,36.19311,-86.828228,37218
1087,HARSHAEN,HARDING PL & SHADECREST DR EB,False,False,72,GRASSMERE-EDMONDSON CONNECTOR,36.076992,-86.73681,37211
1374,LISRICNM,LISCHEY AVE & RICHARDSON AVE NB,False,False,28,MERIDIAN,36.193233,-86.763275,37207
471,BRIBRISN,BRICK CHURCH PIKE & BRICK CHURCH LN,False,False,23,DICKERSON ROAD,36.244305,-86.780384,37207
1875,SHE13SWF,SHELBY AVE & S 13TH ST WB,False,False,4,SHELBY,36.171022,-86.748329,37206
1429,MCFEASSF,MCFERRIN AVE & EASTLAND AVE SB,False,False,30,McFERRIN,36.184126,-86.754613,37206
2026,WESCRAEN,WEST END AVE & CRAIGHEAD AVE EB,False,True,"3,5",WEST END - WHITE BRIDGE,36.133523,-86.828013,37205
1342,LEBPARWM,LEBANON PIKE & PARK DR WB,False,False,"34,6",LEBANON PIKE,36.169721,-86.677448,37214
1791,POWBRASN,POWELL AVE & BRANSFORD AVE,False,False,17,12TH AVENUE SOUTH,,,
1047,HAD11SSN,HADLEY AVE & N 11TH ST SB,False,False,27,OLD HICKORY,36.259836,-86.647866,31138
4564,GXOINGLN,INGLEWOOD STATION OUTBOUND,True,False,"26,56",GALLATIN PIKE,36.225685,-86.725413,37216
4737,ANDMCAWN,ANDERSON LN & MCARTHUR DR WB,False,False,76,MADISON CONNECTOR,36.272217,-86.690576,37115
4419,MCC4_18,MUSIC CITY CENTRAL 4TH - BAY 18,True,False,"26,35",GALLATIN PIKE,36.166233,-86.781827,37219
2122,CHALELEM,CHARLOTTE PIKE & LELLYETT ST EB,False,False,10,CHARLOTTE,36.148955,-86.86344,37209
1071,WESLAUEF,WEST END AVE & LAUDERDALE RD EB,False,True,"3,5",WEST END - WHITE BRIDGE,36.130596,-86.836713,37205
5185,ELMWANWM,ELM HILL PIKE & WANDA DR WB,False,False,18,AIRPORT - DOWNTOWN HOTELS,36.150716,-86.693687,37210
4713,OLDHANWN,OLD HICKORY BLVD & HANKINS ST WB,False,False,76,MADISON CONNECTOR,36.263215,-86.700124,37115
1997,WES18AEN,WEST END AVE & 18TH AVE S EB,False,True,"3,5",WEST END - WHITE BRIDGE,36.152868,-86.796184,37203
53,PIN12AWN,PINE ST & 12TH AVE WB,False,False,61,MUSIC CITY GREEN CIRCUIT,36.152667,-86.784775,37203
590,CHA8AWN,CHARLOTTE AVE & 8TH AVE N WB,False,True,"1,10,17,24,25",100 OAKS,36.164393,-86.785451,37209
4934,EDBCIF,EWING LN & BRICK CHURCH PIKE EB,False,False,23,DICKERSON ROAD,36.231449,-86.780378,37207
1035,GRAMORSM,GRANNY WHITE PIKE & MORROW AVE SB,False,True,8,8TH AVENUE SOUTH,36.104798,-86.796221,37204
921,GALDELNN,GALLATIN PIKE & DELMAS AVE NB,False,False,26,GALLATIN PIKE,36.199399,-86.740719,37216
411,BELHHINN,BELL RD & HICKORY HIGHLANDS DR NB,False,False,15,MURFREESBORO PIKE,36.059458,-86.641035,37013
2814,PANCOUWN,PANORAMA DR & COUNTY HOSPITAL RD WB,False,False,22,BORDEAUX,36.184299,-86.842989,37218
4617,11ALAUSM,11TH & LAUREL SB,False,False,61,MUSIC CITY GREEN CIRCUIT,36.153681,-86.78417,37203
4475,EDMWHISM,EDMONDSON PIKE & WHISPERING HILLS D,False,False,72,GRASSMERE-EDMONDSON CONNECTOR,36.074087,-86.731757,37211
4618,FORCHESN,FORT NEGLEY BLVD & CHESTNUT ST SB,False,False,1,100 OAKS,36.14215,-86.775795,37210
1788,100OAKS,100 OAKS MALL,True,True,"1,17,77",100 OAKS,36.106851,-86.762639,37204
1696,OLDBELSN,OLD HICKORY BLVD & BELLE VALLEY DR SB,False,False,24,BELLEVUE EXPRESS,36.106292,-86.922317,37209
1278,LEACLISN,LEALAND LN & CLIFTON LN SB,False,False,17,12TH AVENUE SOUTH,36.113693,-86.786795,37204
5221,ARDGALEF,ARDEE AVE & GALLATIN PIKE EB,False,False,20,SCOTT,36.219311,-86.727012,37216
3933,NASLONEF,NASHBORO BLVD & LONGHUNTER CT EB,False,False,38,ANTIOCH EXPRESS,36.089348,-86.642704,37217
1140,HILCRENM,HILLSBORO PIKE & CRESTMOOR RD NB,False,True,7,HILLSBORO,36.109868,-86.81142,37215
5078,MXIFOSTE,FOSTER STATION INBOUND,True,False,"15,55",MURFREESBORO PIKE,36.141554,-86.740261,37217
5278,11A12ANM,11TH AVE & 12TH AVE NB,False,False,17,12TH AVENUE SOUTH,36.152335,-86.783785,37203
5058,26ADOWNN,26TH AVE & DOWLAN ST NB,False,False,"21,42",UNIVERSITY CONNECTOR,36.188345,-86.818317,37208
4755,METRO NE,METRO NORTHEAST - MTA,True,False,"27,36,76",OLD HICKORY,36.275012,-86.690562,37115
803,DIVMAGEF,DIVISION ST & MAGAZINE ST EB,False,False,2,BELMONT,36.150857,-86.782815,37203
876,ELMARLWM,ELM HILL PIKE & ARLINGTON AVE WB,False,False,18,AIRPORT - DOWNTOWN HOTELS,36.143788,-86.733277,37210
5172,STOBUEWF,STOKERS LN & BUENA VISTA PK WB,False,False,22,BORDEAUX,36.211364,-86.81844,37218
4222,MCGSTRWN,MCGAVOCK PIKE & STRATFORD AVE WB,False,False,20,SCOTT,36.208029,-86.716987,37216
4553,MCGPARSF,MCGAVOCK PIKE & PARK DR SB,False,False,34,OPRY MILLS,36.171322,-86.679606,37214
5345,BILTAPTS,BILTMORE APARTMENTS AT GLASTONBURY & MASSMAN,False,False,77,THOMPSON CONNECTOR,36.133289,-86.701186,37217
1529,MURSHISM,MURFREESBORO PIKE & SHIAWAY DR SB,False,True,"15,96",MURFREESBORO PIKE,36.080171,-86.645483,37217
4937,CONMISSN,CONFERENCE DR & MISSION RIDGE DR SB,False,False,35,RIVERGATE EXPRESS,36.31123,-86.697249,37072
4885,JACANDWN,JACKSON WAY & ANDREW JACKSON PKWY WB,False,False,27,OLD HICKORY,36.186713,-86.608591,37076
3877,BELLAKSF,BELL RD & LAKERIDGE PASS SB,False,False,38,ANTIOCH EXPRESS,36.145221,-86.626308,37214
1794,PREWILSM,PREMIER DR & WILCLAY AVE SB,False,False,10,CHARLOTTE,36.143253,-86.88215,37209
1233,JEFI40EF,JEFFERSON ST & I-40 EB,False,False,"21,60",UNIVERSITY CONNECTOR,36.168496,-86.812965,37243
3117,CLI34AEN,CLIFTON AVE & 34TH AVE N EB,False,False,19,HERMAN,36.158492,-86.827075,37209
1219,JEF21AWM,JEFFERSON ST & 21ST AVE N WB,False,False,"21,60",UNIVERSITY CONNECTOR,36.168958,-86.810828,37208
4551,MCGFERSF,MCGAVOCK PIKE & FERNBROOK LN SB,False,False,34,OPRY MILLS,36.185686,-86.676287,37214
204,40ACLISN,40TH AVE N & CLIFTON AVE SB,True,False,19,HERMAN,36.158381,-86.834411,37209
1966,UNI7AWN,UNION ST & 7TH AVE N WB,False,True,"35,84,86,96",RIVERGATE EXPRESS,36.163587,-86.783351,37219
4653,DEM2AEN,DEMONBREUN ST & 2ND AVE EB,False,False,93,MUSIC CITY STAR WEST END SHUTTLE,36.159875,-86.77392,37203
4399,GREATHIM,GREAT CIRCLE RD & ATHENS WAY EB,False,False,9,METROCENTER,36.19918,-86.799771,37228
2852,H70PERWF,HWY 70S & PERCY WARNER BLVD WB,False,False,5,WEST END - BELLEVUE,36.084699,-86.894763,37221
1303,LEBFESN,LEBANON PIKE & FESSLERS LN WB,False,False,"34,6",LEBANON PIKE,36.154424,-86.743072,37210
842,EDG19AWN,EDGE HILL AVE & 19TH AVE S WB,False,False,25,MIDTOWN,36.143933,-86.797428,37235
2510,ARTS,ARTS MAGNET SCHOOL,True,False,"14,15,24,38,99",WHITES CREEK,36.132222,-86.74023,37210
1264,LAF1AEM,LAFAYETTE ST & 1ST AVE S EB,False,True,"15,18",MURFREESBORO PIKE,36.149651,-86.765113,37210
3122,BAT28AEN,BATAVIA ST & 28TH AVE N EB,False,False,19,HERMAN,36.161102,-86.819225,37209
1268,LAFUNIWN,LAFAYETTE ST & UNIVERSITY ST WB,False,True,"15,18",MURFREESBORO PIKE,,,
1439,MCGFEREN,MCGAVOCK PIKE & FERNWOOD DR EB,False,False,20,SCOTT,36.208608,-86.715179,37216
4819,GRSM#1S,GRASSMERE EOL,False,False,72,GRASSMERE-EDMONDSON CONNECTOR,36.088533,-86.748727,37211
60,12AWEDSF,12TH AVE S & WEDGEWOOD SB,False,False,17,12TH AVENUE SOUTH,36.135496,-86.789043,37203
1557,MURBOWEF,MURFREESBORO PIKE & BOWWOOD CT EB,False,False,15,MURFREESBORO PIKE,36.125083,-86.709242,37217
5359,ETHBRONN,E THOMPSON LN & BROWNING RD NB,False,False,77,THOMPSON CONNECTOR,36.120544,-86.717951,37217
4082,FRAKIRSN,FRANKLIN PIKE & KIRKWOOD AVE SB,False,False,8,8TH AVENUE SOUTH,36.121461,-86.775606,37204
2515,MUSICVAL,MUSIC VALLEY VILLAGE,False,False,34,OPRY MILLS,36.219176,-86.696413,37214
343,BAPHAYSF,BAPTIST WORLD CENTER DR & HAYNES MEADE CR SB,False,False,14,WHITES CREEK,36.202074,-86.788515,37207
4676,JAMGAYSN,JAMES ROBERTSON PKWY & GAY ST SB,False,False,"18,42,60,61",ST. CECILIA - CUMBERLAND,36.168277,-86.782254,37219
2315,RICLORWN,RICHARDS RD & LORI DR WB,False,False,38,ANTIOCH EXPRESS,36.068789,-86.678058,37013
4328,DELGARSM,DELTA AVE & GARFIELD ST SB,False,False,22,BORDEAUX,36.178358,-86.79667,37208
495,BRO18AEN,BROADWAY AVE & 18TH AVE S EB,False,False,"35,7",HILLSBORO,36.152151,-86.795148,37203
50,12ASWENF,12TH AVE S & SWEETBRIAR AVE NB,False,False,17,12TH AVENUE SOUTH,36.123872,-86.789755,37204
5428,28ACITNN,28TH AVE N & CITY BLVD NB,False,False,21,UNIVERSITY CONNECTOR,36.152325,-86.818473,37209
5100,SAWPLASM,SAWYER BROWN RD & PLANTATION CT SB,False,False,"24,5",WEST END - BELLEVUE,36.074926,-86.946082,37221
4291,NOLMCMNN,NOLENSVILLE PIKE & MCMURRAY DR NB,False,False,52,NOLENSVILLE PK BRT LITE,36.06107,-86.716444,37211
1467,METGREWM,METROCENTER & GREAT CIRCLE RD WB,False,True,9,METROCENTER,36.193804,-86.810007,37228
5249,GREFAIN,GREEN ST & FAIRFIELD AVE NB,False,False,25,MIDTOWN,36.152666,-86.75629,37210
1731,OLDRIDSF,OLD HICKORY BLVD & RIDGELAKE PKWY SB,False,False,24,BELLEVUE EXPRESS,36.097364,-86.924945,37209
1504,MURDOVWN,MURFREESBORO PIKE & DOVER GLEN DR N,False,False,15,MURFREESBORO PIKE,36.07715,-86.641295,37217
345,BAPLOCNM,BAPTIST WORLD CENTER DR & LOCK RD NB,False,False,14,WHITES CREEK,36.199178,-86.78474,37207
912,GALBRONN,S GALLATIN PIKE & BROADMOOR DR NB,False,True,26,GALLATIN PIKE,36.22909,-86.724958,37216
2483,DELCOLWN,DELVIN DR & COLEMONT DR WB,False,False,37,TUSCULUM - McMURRAY EXPRESS,36.054371,-86.700399,37013
831,DOVCHEWN,DOVERSIDE DR & CHESAPEAKE DR WB,False,False,23,DICKERSON ROAD,36.241297,-86.76779,37207
2469,OLDVALEN,OLD HICKORY BLVD & VALLEY VIEW RD EB,False,False,37,TUSCULUM - McMURRAY EXPRESS,36.040576,-86.771191,37027
1298,LEBDONEN,LEBANON PIKE & DONELSON PIKE EB,False,True,6,LEBANON PIKE,36.167637,-86.663513,37214
410,HICHICNN,HICKORY HOLLOW PL & HICKORY HOLLOW,False,False,"15,55",MURFREESBORO PIKE,36.052658,-86.654986,37011
64,14SCALSN,N 14TH ST & CALVIN AVE SB,False,False,20,SCOTT,36.181379,-86.745228,37206
218,4AVCHUSN,4TH AVE N & CHURCH ST SB,False,True,"15,18,25,27,33,34,36,37,44,52,55,60,61",LEBANON PIKE,36.163796,-86.779079,37219
4279,TROLYNSF,TROUSDALE DR & LYNN DR SB,False,False,72,GRASSMERE-EDMONDSON CONNECTOR,36.084294,-86.756595,37220
2217,GREADDEN,GREENLAND AVE & ADDINE ST EB,False,False,20,SCOTT,36.218183,-86.714996,37216
4926,KCRTO,KNOLLCREST APARTMENTS,False,False,23,DICKERSON ROAD,36.234377,-86.767376,37207
1293,LEBDANNN,LEBANON PIKE & DANYACREST AVE NB,False,True,6,LEBANON PIKE,36.179616,-86.64385,37138
4675,12ALAUNN,12TH AVE & LAUREL ST NB,False,False,"61,93",MUSIC CITY GREEN CIRCUIT,36.15358,-86.785484,37203
3206,14ACECSN,14TH AVE N & CECILIA ST SB,False,False,42,ST. CECILIA - CUMBERLAND,36.188052,-86.810249,37208
1335,LEBOMOWN,LEBANON PIKE & OMOHUNDRO PL WB,False,False,"34,6",LEBANON PIKE,36.153681,-86.733762,37210
5326,EDMHUNSN,EDMONDSON PK & HUNTINGTON PKWY SB,False,False,72,GRASSMERE-EDMONDSON CONNECTOR,36.052322,-86.743188,37211
3138,10SKIRNF,10TH AVE S & KIRKWOOD AVE NB,False,False,17,12TH AVENUE SOUTH,36.120038,-86.787109,37204
1865,SHAEDEWN,SHACKLEFORD RD & EDEN AVE WB,False,False,"2,21",BELMONT,36.101525,-86.804094,37215
2034,WESLEOEN,WEST END AVE  & LEONARD AVE EB,False,True,"3,5",WEST END - WHITE BRIDGE,36.132893,-86.829728,37205
841,EDG18AWN,EDGE HILL AVE & 18TH AVE S WB,False,True,25,MIDTOWN,36.143683,-86.795468,37212
2501,EWICLAEN,EWING DR & CLAYMILLE BLVD EB,False,False,41,GOLDEN VALLEY,36.231823,-86.801777,37207
2061,WHIKENSN,WHITE BRIDGE PIKE & KENDALL SB,False,False,3,WEST END - WHITE BRIDGE,36.139637,-86.857509,37209
4615,5AVCHANN,5TH AVE & CHARLOTTE AVE NB,False,False,"14,15,23,25,27,34,36,38,44,60,61,63,84,86,96",LEBANON PIKE,36.165679,-86.781727,37209
4281,LINWALWM,LINBAR DR & WALLACE RD WB,False,False,52,NOLENSVILLE PK BRT LITE,36.083454,-86.703888,37211
5361,MASKIPNF,MASSMAN DR & KIPLING DR NB,False,False,77,THOMPSON CONNECTOR,36.130649,-86.700083,37217
1301,LEBFAIEN,LEBANON PIKE & FAIRWAY DR EB,False,False,"34,6",LEBANON PIKE,36.168866,-86.683426,37214
1125,HERLINWF,HERMITAGE AVE & LINDSLEY AVE WB,False,False,"25,27,33,34,36,37,38,44,84,86,96",LEBANON PIKE,36.15508,-86.763995,37210
4202,SMRY,SMYRNA & KMART,False,False,"86,96",SMYRNA - LA VERGNE EXPRESS,35.993176,-86.526609,37167
4728,GALMAPSN,GALLATIN PIKE S & MAPLE ST SB,True,False,"26,76",GALLATIN PIKE,36.261326,-86.712671,37115
5133,STRBERNN,STRATFORD AVE & BERKSHIRE DR NB,False,False,4,SHELBY,36.196921,-86.717097,37216
4897,HADDONSF,HADLEY AVE & DONELSON AVE SB,False,False,27,OLD HICKORY,36.263524,-86.647872,37138
2775,BUCDBTWN,BUCHANAN ST & DR D B TODD JR BLVD WB,False,False,22,BORDEAUX,36.180096,-86.810953,37208
4707,LARNEWNN,LARKIN SPRINGS RD & NEW PROVIDENCE PASS NB,False,False,76,MADISON CONNECTOR,36.258534,-86.684955,37115
302,9ACHUNN,9TH AVE N & CHURCH ST NB,False,True,35,RIVERGATE EXPRESS,36.161206,-86.784363,37203
133,21AGRANN,21ST AVE S & GRAND AVE NB,False,True,"25,35,7",HILLSBORO,36.147382,-86.799334,37240
4152,CONRIVSN,CONFERENCE DR & RIVERGATE MALL SB,False,False,35,RIVERGATE EXPRESS,36.306112,-86.694097,37072
5331,GREKNIWF,GREEN LN & KNIGHT DR WB,False,False,41,GOLDEN VALLEY,36.236813,-86.803848,37189
1382,LISMARNF,LISCHEY AVE & MARIE ST NB,False,False,28,MERIDIAN,36.196629,-86.762686,37207
4883,ANDNORSN,ANDREW JACKSON WAY & NORTHLAKE VILLAGE SB,False,False,27,OLD HICKORY,36.183212,-86.607949,37076
4413,MCC4_19,MUSIC CITY CENTRAL 4TH - BAY 19,True,False,"25,3,52,9",WEST END - WHITE BRIDGE,36.166581,-86.781917,37208
5307,23ACHASF,23RD AVE & CHARLOTTE PK SB,False,False,25,MIDTOWN,36.155377,-86.809601,37203
1273,LAFFAIEN,LAFAYETTE ST & FAIRFIELD AVE EB,False,True,"15,18",MURFREESBORO PIKE,36.1473,-86.758053,37210
4331,CRECRESN,CREEKWOOD & CREEKLAND CT SB,False,False,22,BORDEAUX,36.216897,-86.846225,37218
447,BOYBUENN,BOYD DR & BUENAVIEW BLVD NB,False,False,14,WHITES CREEK,36.227897,-86.827407,37218
4561,GXIDOUGN,DOUGLAS STATION INBOUND,True,False,"26,56",GALLATIN PIKE,36.19279,-86.744381,37206
4924,BELGLESN,BELMONT BLVD & GLEN ECHO RD SB,False,False,"2,21",BELMONT,36.107405,-86.800794,37215
3239,14SEASNN,14TH ST N & EASTLAND AVE NB,False,False,20,SCOTT,36.183388,-86.744857,37206
2008,WES24AEN,WEST END AVE & 24TH AVE S EB,False,True,"3,5",WEST END - WHITE BRIDGE,36.147828,-86.806545,37203
1111,HER24TWN,HERMAN ST & 24TH AVE N WB,False,False,19,HERMAN,36.162189,-86.81178,37208
381,BELBRIWN,BELL RD & BRITTANY PARK DR WB,False,False,33,HICKORY HOLLOW-LENOX EXPRESS,36.046835,-86.679149,37211
4613,BELBERNN,BELMONT BLVD & BERNARD AVE NB,False,False,"2,21",BELMONT,36.131801,-86.79544,37212
4533,KINTEMWF,KINGS LN & TEMPLE CHURCH PARK-N-RIDE,False,False,22,BORDEAUX,36.217997,-86.843251,37218
946,GALGRNSN,GALLATIN PIKE & GREENLAND AVE SB,False,False,"20,26",SCOTT,36.222824,-86.725842,37216
4439,LPSCI,LIPSCOMB UNIVERSITY,True,False,"2,21,8",BELMONT,36.102449,-86.801488,37204
2752,COUHOSEN,COUNTY HOSPITAL RD & HOSPITAL LN EB,False,False,22,BORDEAUX,36.182512,-86.845736,37218
1824,ROSSHESN,ROSEBANK AVE & SHERIDAN RD SB,False,False,4,SHELBY,36.192586,-86.708898,37206
1485,MUR21AWN,MURPHY AVE & 21ST AVE N WB,False,False,25,MIDTOWN,36.155428,-86.804713,37203
1628,NXOANTCH,ANTIOCH STATION OUTBOUND,False,True,52,NOLENSVILLE PK BRT LITE,36.101755,-86.740595,37211
965,GALIVENN,GALLATIN PIKE & IVERSON AVE NB,False,False,"26,4",SHELBY,36.207698,-86.735472,37216
943,GALGRENN,GALLATIN PIKE & GREENWOOD AVE NB,False,False,26,GALLATIN PIKE,36.190647,-86.745313,37206
1080,HARNOLWF,HARDING PL & NOLENSVILLE PIKE WB,False,False,72,GRASSMERE-EDMONDSON CONNECTOR,36.079149,-86.728008,37211
4274,WESLOUEN,WEST END AVE & LOUISE AVE EB,False,False,"3,5",WEST END - WHITE BRIDGE,36.149248,-86.803507,37235
5334,DBT17ANN,DR D.B. TODD JR BLVD & 17TH AVE NB,False,False,21,UNIVERSITY CONNECTOR,36.178287,-86.810246,37208
2107,WOO7SWN,WOODLAND ST & S 7TH ST WB,False,True,20,SCOTT,36.173615,-86.760189,37206
853,ELMWANEM,ELM HILL PIKE & WANDA DR EB,False,False,18,AIRPORT - DOWNTOWN HOTELS,36.1506,-86.693653,37210
3918,RICUNAEN,RICHARDS RD & UNA ANTIOCH PIKE EB,False,True,38,ANTIOCH EXPRESS,36.067179,-86.661745,37013
4441,MURMARSN,MURFREESBORO PIKE & MARTWAY DR SB,False,False,15,MURFREESBORO PIKE,36.078312,-86.643094,37013
1881,SHE15SWF,SHELBY AVE & S 15TH ST WB,False,False,4,SHELBY,36.170646,-86.744695,37206
406,BELHHOEN,BELL RD & HICKORY HOLLOW PKWY EB,False,True,33,HICKORY HOLLOW-LENOX EXPRESS,36.047277,-86.656155,37013
1318,LEBJACEF,LEBANON PIKE & JACKSON DOWNS BLV D,False,False,6,LEBANON PIKE,36.182108,-86.640891,37214
4262,GALROOSN,GALLATIN PIKE & ROOSEVELT AVE SB,False,False,26,GALLATIN PIKE,36.271168,-86.710472,37115
5273,11ACHASF,11TH AVE & CHARLOTTE AVE SB,False,False,17,12TH AVENUE SOUTH,36.161582,-86.790293,37203
5188,ELMMASW_,ELM HILL PIKE & MASSMAN DR WB,False,False,18,AIRPORT - DOWNTOWN HOTELS,36.144995,-86.710874,37210
4448,2AJOJNM,2ND AVE N & JO JOHNSTON AVE NB,False,False,28,MERIDIAN,36.171295,-86.780997,37201
591,CHA9AWN,CHARLOTTE AVE & 9TH AVE N WB,False,True,24,BELLEVUE EXPRESS,36.164125,-86.786101,37209
2470,OLDCLOEN,OLD HICKORY BLVD & CLOVERLAND DR EB,False,False,37,TUSCULUM - McMURRAY EXPRESS,36.040272,-86.76856,37027
1280,LEAKIRSN,LEALAND LN & KIRKWOOD AVE SB,False,False,17,12TH AVENUE SOUTH,36.11989,-86.787277,37204
2959,DICDONSN,DICKERSON PK & DONALD ST SB,False,False,23,DICKERSON ROAD,36.211723,-86.765295,37207
4921,UNI2AEF,UNION ST & 2ND AVE EB,True,False,"14,20,23,43",SHELBY,36.166036,-86.777419,37201
2995,16SWOONN,16TH ST & WOODLAND ST NB,False,False,4,SHELBY,36.176735,-86.741876,37206
1496,MURBRONN,MURFREESBORO PIKE & BROOKSBORO TR N,False,True,15,MURFREESBORO PIKE,36.083586,-86.647053,37217
4971,21AMEHNM,21 ST AVE N & MEHARRY BLVD NB,False,False,21,UNIVERSITY CONNECTOR,36.16748,-86.809233,37208
710,COUPANEM,COUNTY HOSPITAL RD & PANORAMA DR EB,False,False,22,BORDEAUX,36.187716,-86.839444,37218
5409,5AVHARNN,5TH AVE N & HARRISON ST NB,False,False,60,MUSIC CITY BLUE CIRCUIT,36.170072,-86.784566,37208
4871,LEBHERSN,LEBANON PIKE & HERMITAGE RD SB,False,False,"27,6",LEBANON PIKE,36.200433,-86.618581,37076
812,DONROYNN,DONELSON PKWY & ROYAL PKWY NB,False,True,18,AIRPORT - DOWNTOWN HOTELS,36.145763,-86.666486,37214
1827,ROWBUENN,ROWAN DR & BUENA VISTA PIKE NB,False,False,14,WHITES CREEK,36.217237,-86.819123,37207
4842,WED18AWN,WEDGEWOOD AVE & 18TH AVE S WB,False,False,21,UNIVERSITY CONNECTOR,36.137212,-86.796865,37212
872,ELMSPEEN,ELM HILL PIKE & SPENCE LN EB,False,False,18,AIRPORT - DOWNTOWN HOTELS,36.143903,-86.722807,37210
4949,VAIQUASF,VAILVIEW DR & QUALYNN DR SB,False,False,23,DICKERSON ROAD,36.23727,-86.770339,37207
4241,PREWILNN,PREMIER DR & WILCLAY DR NB,False,False,10,CHARLOTTE,36.144979,-86.879024,37209
1424,MAYDUPSN,MAY DR & N. DUPONT AVE SB,False,False,76,MADISON CONNECTOR,36.267449,-86.695156,37115
2156,EDGHILEN,EDGEHILL AVE & HILLSIDE AVE EB,False,False,"25,93",MIDTOWN,36.14194,-86.781058,37203
270,8ADEMNN,8TH AVE S & DEMONBREUN ST NB,False,False,"1,18,2",100 OAKS,36.156777,-86.78067,37204
824,DRDJOJNN,DR DB TODD JR BLVD & JO JOHNSTON AVE NB,False,False,25,MIDTOWN,36.160454,-86.801749,37203
1288,LEBCENEF,LEBANON PIKE & CENTRAL PK EB,False,False,6,LEBANON PIKE,36.186997,-86.63087,37076
959,GALLAKNN,GALLATIN PIKE & LAKEWOOD DR NB,False,False,26,GALLATIN PIKE,36.244354,-86.722479,37115
541,CXONGULC,11TH AVE / N GULCH STATION OUTBOUND,False,False,"1,10,24,25,50",100 OAKS,36.162249,-86.790464,37209
880,EWIBRIWN,EWING DR & BRICK CHURCH PIKE WB,True,False,23,DICKERSON ROAD,36.231512,-86.78049,37207
4319,HAYCHANN,HAYNES PARK DR & CHARLES CT NB,False,False,22,BORDEAUX,36.213417,-86.833893,37218
2111,WOOGENEN,WOODMONT BLVD & GEN BATE DR EB,False,False,"17,8",8TH AVENUE SOUTH,36.110416,-86.783779,37204
2306,NASMURWN,NASHBORO BLVD & MURFREESBORO PK WB,False,False,38,ANTIOCH EXPRESS,36.087996,-86.64692,37217
1470,MONARTWN,MONROE ST & ARTHUR ST WB,False,False,42,ST. CECILIA - CUMBERLAND,36.174284,-86.796642,37208
4486,EDMDURNN,EDMONDOSN PIKE & DURRETT DR NB,False,False,72,GRASSMERE-EDMONDSON CONNECTOR,36.069814,-86.735153,37211
5455,CM5_4,Temporary Bay 4,False,False,,HERMAN,,,
933,GALEDENM,GALLATIN PIKE & EDENWOLD RD NB,False,False,26,GALLATIN PIKE,36.288484,-86.704525,37115
4150,CHA21AEN,CHARLOTTE AVE & 21ST AVE N EB,False,True,25,MIDTOWN,36.156605,-86.806313,37203
2516,OPRYHMAG,OPRYLAND HOTEL MAGNOLIA ENTRANCE,False,False,34,OPRY MILLS,36.21153,-86.692312,37216
463,BRAWEDNN,BRANSFORD AVE & WEDGEWOOD AVE NB,False,False,1,100 OAKS,36.132468,-86.768817,37204
1507,MUREXPEN,MURFREESBORO & EXPRESSWAY PARKWAY,False,False,"15,18",MURFREESBORO PIKE,36.145972,-86.754109,37210
62,14SBENNN,N 14TH ST & BENJAMIN ST NB,False,False,20,SCOTT,36.186727,-86.743497,37206
3904,UNARICSN,UNA ANTIOCH PK & RICHARDS RD SB,False,False,38,ANTIOCH EXPRESS,36.067438,-86.661722,37013
2818,BUEYOUNF,BUENA VISTA PK & YOUNGS LN NB,False,False,22,BORDEAUX,36.203604,-86.820939,37218
1957,TUCHUMNN,TUCKER RD & HUMMINGBIRD DR NB,False,False,14,WHITES CREEK,36.218152,-86.826347,37218
1882,SHE16SEN,SHELBY AVE & S 16TH ST EB,False,False,4,SHELBY,36.17044,-86.743113,37206
5113,DEM7AEN,DEMONBREUN ST & 7TH AVE EB,False,False,"61,93",MUSIC CITY GREEN CIRCUIT,36.157339,-86.779764,37203
4159,OLDI40NN,OLD HICKORY BLVD & I-40 NB,False,True,24,BELLEVUE EXPRESS,36.10788,-86.922344,37209
1977,VANGREWM,VANTAGE WAY & GREAT CIRCLE RD WB,False,False,9,METROCENTER,36.191349,-86.795593,37228
69,14SORDNN,N 14TH ST & ORDWAY PL NB,False,False,20,SCOTT,36.180166,-86.745335,37206
2010,WES25AEN,WEST END AVE & 25TH AVE S EB,False,True,"3,5",WEST END - WHITE BRIDGE,36.146854,-86.808497,37203
1637,NOLNORNN,NOLENSVILLE PIKE & NORTHCREST DR NB,False,False,52,NOLENSVILLE PK BRT LITE,36.066627,-86.717745,37211
1170,HWYSAWWM,HWY 70 S & SAWYER BROWN WB,False,False,5,WEST END - BELLEVUE,36.077742,-86.947539,37221
1999,WES19AEN,WEST END AVE & 19TH AVE S EB,True,True,"3,5",WEST END - WHITE BRIDGE,36.152168,-86.797482,37205
2869,H70VAUEN,HWY 70 S & VAUGHN'S GAP RD EB,False,False,5,WEST END - BELLEVUE,36.092522,-86.885446,37205
1641,NOLOCASN,NOLENSVILLE PIKE & OCALA DR SB,False,False,52,NOLENSVILLE PK BRT LITE,36.05165,-86.71458,37211
4875,GRESCOEN,GREENWOOD AVE & SCOTT AVE EB,False,False,20,SCOTT,36.189098,-86.733689,37206
1663,NOLWALNN,NOLENSVILLE PIKE & WALLACE RD NB,False,False,52,NOLENSVILLE PK BRT LITE,36.076974,-86.725383,37211
3052,JEF17TWN,JEFFERSON ST & 17TH AVE N WB,False,True,60,MUSIC CITY BLUE CIRCUIT,36.170035,-86.804589,37208
5312,CRESKYNF,CREEKWOOD & SKYLINE APTS NB,False,False,23,DICKERSON ROAD,36.232628,-86.769705,37207
4212,ANDHIGSN,ANDREW JACKSON PKWY & HIGHLAND VIEW DR SB,False,False,6,LEBANON PIKE,36.20704,-86.605671,37076
1525,MURMCGEN,MURFREESBORO PIKE & MCGAVOCK PIKE E,False,True,"15,96",MURFREESBORO PIKE,36.116368,-86.697547,37217
2983,21ABERSN,21ST AVE S & BERNARD AVE,False,False,7,HILLSBORO,36.131983,-86.801528,37212
4370,LELNOESF,LEALAND LN & NOELTON AVE SB,False,False,17,12TH AVENUE SOUTH,36.11213,-86.787232,37204
4579,GXIRIVEF,RIVERGATE STATION,True,False,"26,56",GALLATIN PIKE,36.30047,-86.69561,37115
4129,MCFDOUSF,MCFERRIN AVE & DOUGLAS AVE SB,False,False,30,McFERRIN,36.193248,-86.753358,37206
1866,SHAEDEEN,SHACKLEFORD RD & EDEN AVE EB,False,False,"2,21",BELMONT,36.101493,-86.804302,37215
380,BELBLUEN,BELL RD & BLUE HOLE RD EB,False,False,33,HICKORY HOLLOW-LENOX EXPRESS,36.045667,-86.674659,37013
5337,PORPREWF,PORTER RD & PRESTON DR WB,False,False,4,SHELBY,36.19602,-86.717558,37216
104,1SJAMNM,N 1ST ST & JAMES ROBERTSON PKWY NB,False,False,"14,23,43",WHITES CREEK,36.172643,-86.773761,37213
1326,LEBLYNSN,LEBANON PIKE & LYNNMEADE DR SB,False,False,"34,6",LEBANON PIKE,36.161355,-86.701771,37210
4494,JOJ17AWN,JO JOHNSTON AVE  & 17TH AVE WB,False,False,25,MIDTOWN,36.161455,-86.799819,37203
2957,DICLEMSF,DICKERSON PIKE & LEMUEL RD SB,False,False,"23,43",DICKERSON ROAD,36.215223,-86.764056,37207
4426,BELLNCNN,BELL RD & LINCOYA BAY NB,False,False,38,ANTIOCH EXPRESS,36.145405,-86.626133,37214
4655,4AMCCPLZ,4TH AVE & MCC PLAZA,False,False,"27,60,61",OLD HICKORY,36.167286,-86.781334,37219
2028,WESELMEN,WEST END AVE & ELMINGTON AVE EB,False,True,"3,5",WEST END - WHITE BRIDGE,36.13499,-86.823993,37205
1070,HARJONWN,HARDING PIKE & JONQUIL DR WB,False,False,52,NOLENSVILLE PK BRT LITE,36.080494,-86.717779,37211
4704,CHEMANNN,CHEYENNE BLVD & HIDDEN ACRES APTS NB,False,False,76,MADISON CONNECTOR,36.256277,-86.674733,37115
4699,NEENIXEN,NEELY'S BEND RD & NIX PASS EB,False,False,,MADISON CONNECTOR,,,
2475,AMAHILSN,AMALIE DR & HILSON RD SB,False,False,37,TUSCULUM - McMURRAY EXPRESS,36.05026,-86.72445,37211
778,DICMULSN,DICKERSON PIKE & MULBERRY DOWNS CIR,False,False,43,HICKORY HILLS,36.25167,-86.757501,37207
4721,MYADUPNN,MYATT DR & N DUPONT AVE NB,False,False,"27,36,76",OLD HICKORY,36.266404,-86.689977,37115
1665,NXIFRGND,FAIRGROUNDS STATION INBOUND,False,True,52,NOLENSVILLE PK BRT LITE,36.135363,-86.759706,37210
5068,MXOBELL,BELL STATION OUTBOUND,True,False,"15,55",MURFREESBORO PIKE,36.07199,-86.636496,37217
2578,GALGRASN,GALLATIN AVE & GRANADA AVE SB,True,False,26,GALLATIN PIKE,36.188389,-86.746391,37206
3812,3AVBRONN,3RD AVE N & BROADWAY AVE NB,False,False,,HICKORY HOLLOW-LENOX EXPRESS,,,
2206,CHEMARWM,CHESTNUT ST & MARTIN ST WB,False,False,25,MIDTOWN,36.14307,-86.770883,37203
1223,JEF27AWN,JEFFERSON ST & 27TH AVE WB,False,False,"21,60",UNIVERSITY CONNECTOR,36.167987,-86.818532,37208
1550,MURRURSF,MURFREESBORO PIKE & RURAL HILL RD S,True,False,"15,96",MURFREESBORO PIKE,36.073386,-86.637707,37217
4280,NXOJOYNR,JOYNER STATION OUTBOUND,False,False,52,NOLENSVILLE PK BRT LITE,36.116599,-86.74822,37210
5402,OLDGOOEN,OLD HICKORY BLVD & GOODMORNING DR E,False,False,43,HICKORY HILLS,36.277338,-86.769987,37115
31,12ADIVNN,12TH AVE S & DIVISION ST NB,False,False,"17,2,93",BELMONT,36.150417,-86.784338,37203
1419,MARWEDSN,MARTIN ST & WEDGEWOOD AVE SB,False,False,1,100 OAKS,36.133607,-86.770473,37203
279,8A9ANM,8TH AVE N & 9TH AVE N NB,False,True,"22,42",BORDEAUX,36.169933,-86.789091,37219
825,DRDMEHNN,DR DB TODD BLVD & MEHARRY BLVD NB,False,False,21,UNIVERSITY CONNECTOR,36.167561,-86.805789,37208
4958,BRIBRIWN,BRICKMONT DR & BRICKMONT CT WB,False,False,23,DICKERSON ROAD,36.246422,-86.771292,37207
4835,31AWELWF,31ST AVE & WELLINGTON AVE WB,False,False,21,UNIVERSITY CONNECTOR,36.139736,-86.813305,37212
